#aV2009  7 22  0  0   .00000000      96 DD+AD WGS84 FIT  NGA
## 1541 259200.00000000   900.00000000 55034  .0000000000000
+   31     1  2  3  4  6  7  8  9 10 11 12 13 14 15 16 17 18
+         19 20 21 22 23 24 25 26 27 28 29 30 31 32  0  0  0
+          0  0  0  0  0  0  0  0  0  0  0  0  0  0  0  0  0
+          0  0  0  0  0  0  0  0  0  0  0  0  0  0  0  0  0
+          0  0  0  0  0  0  0  0  0  0  0  0  0  0  0  0  0
++         0  0  0  0  0  0  0  0  0  0  0  0  0  0  0  0  0
++         0  0  0  0  0  0  0  0  0  0  0  0  0  0  0  0  0
++         0  0  0  0  0  0  0  0  0  0  0  0  0  0  0  0  0
++         0  0  0  0  0  0  0  0  0  0  0  0  0  0  0  0  0
++         0  0  0  0  0  0  0  0  0  0  0  0  0  0  0  0  0
%c cc cc ccc ccc cccc cccc cccc cccc ccccc ccccc ccccc ccccc
%c cc cc ccc ccc cccc cccc cccc cccc ccccc ccccc ccccc ccccc
%f  0.0000000  0.000000000  0.00000000000  0.000000000000000
%f  0.0000000  0.000000000  0.00000000000  0.000000000000000
%i    0    0    0    0      0      0      0      0         0
%i    0    0    0    0      0      0      0      0         0
/*      NGA, ST. LOUIS,MO.                                  
/*   EPHEMERIS COMPUTED FROM  3 DAYS OF DATA                
/* CCCCCCCCCCCCCCCCCCCCCCCCCCCCCCCCCCCCCCCCCCCCCCCCCCCCCCCCC
/* CCCCCCCCCCCCCCCCCCCCCCCCCCCCCCCCCCCCCCCCCCCCCCCCCCCCCCCCC
*  2009  7 22 11  0   .00000000                                                 
P  1   8681.333004 -15403.442607 -19883.267779    -63.823332                    
V  1  24946.855231  -2725.906863  13168.246467       .029665                    
P  2  15818.822881   2037.243991 -21275.576912    161.186781                    
V  2  -8875.273619  25462.479467  -4595.120760       .018220                    
P  3 -21114.848856  -4801.474922  15289.996719    423.405236                    
V  3 -12344.186330 -15874.055837 -21226.287152       .050587                    
P  4  10689.383073  13371.026205 -20356.772022   -185.825610                    
V  4 -10692.734845  23422.923584  10199.406817      -.165869                    
P  6 -21201.791883  -9202.475362  13343.015169    199.365701                    
V  6  -8920.409411 -14352.938123 -24345.736487       .104478                    
P  7  -6141.681569  25249.358156   5116.256882     14.792957                    
V  7  -4853.879434   5125.387518 -31107.477160      -.006923                    
P  8   2626.063131  20259.487539  16631.890661   -213.081553                    
V  8 -10460.331999  18689.364293 -21544.155182      -.017920                    
P  9  14466.058904 -19087.003452  10734.026484     67.875105                    
V  9  -2773.884558  14550.299584  27975.861915       .020621                    
P 10  26495.670883   -713.975239  -3711.598901    -19.685423                    
V 10  -4112.181472   3118.077688 -31009.331216      -.006897                    
P 11 -11993.255267  20905.994951  10552.747409    -11.682972                    
V 11  -2405.682538 -14564.324321  25968.590599      -.016238                    
P 12  19829.388996 -11857.354067 -12926.320145   -246.634477                    
V 12  16693.103648   -191.819216  25783.552686       .060904                    
P 13   2492.021716  21311.159860 -15777.731313    301.863861                    
V 13 -12347.927781 -15439.282167 -23004.815699       .006525                    
P 14 -14921.843810 -22009.909002   1547.623378    -76.341883                    
V 14   2539.264187    369.889506  32190.043168       .055901                    
P 15  16956.476672  -2024.894103  20380.867282   -309.951451                    
V 15  15642.404533  20575.475124 -10919.415516      -.023727                    
P 16 -25063.952558  -2804.146189  -8663.137332     30.418295                    
V 16  10631.603446  -3532.465033 -29196.625481      -.036604                    
P 17  14842.655565  22034.077239   2373.311016     72.053097                    
V 17  -3886.609458   -682.849922  31419.779092       .025633                    
P 18    -41.865380 -15801.137773  21564.387272    -37.947351                    
V 18  26778.262436  -2842.099682  -2435.102016       .030986                    
P 19 -15938.227442   3034.983319  21130.533382     18.136773                    
V 19 -14566.735984 -22335.229733  -7540.851115      -.014410                    
P 20 -18361.833459  13440.261588 -13789.666158     76.692867                    
V 20 -17561.143466    433.995898  24059.679597      -.009797                    
P 21   3616.711107 -24737.884240   8230.249416      1.306961                    
V 21   7505.626015  -8055.597283 -29089.388729      -.022028                    
P 22 -12717.456157 -12941.084382  19584.154602    194.990074                    
V 22  24249.316873  -4199.962754  12999.156167      -.007466                    
P 23  -8549.693677  12983.905310 -21540.212282    389.958427                    
V 23 -17349.694932 -21037.783203  -6097.260935      -.001797                    
P 24  13296.400051 -22815.474761  -3798.352085    206.346718                    
V 24    615.293745   5716.699535 -30858.971484       .029901                    
P 25  -8877.593018  24997.814450  -2363.711729    519.630453                    
V 25  -1345.230417  -3921.248679 -31646.100406       .170379                    
P 26  -2349.926336 -20802.654510  15501.432637     64.769817                    
V 26  13470.797749  15972.584538  23167.392155       .000310                    
P 27  16361.581919 -13361.157622  16785.095845     67.728768                    
V 27  -4928.115241  19431.717815  21147.000443       .032248                    
P 28  10134.878688  13411.317846  21069.462501    -26.015781                    
V 28 -25420.598904   3617.144661   9829.308270      -.001009                    
P 29   -781.226745 -20509.787963 -16777.969503     41.727508                    
V 29  14399.397666  16051.616909 -20124.750164       .034115                    
P 30   9590.549194 -15879.055049 -19355.656908    162.869342                    
V 30  23659.692180  -3200.321471  14714.384743       .028772                    
P 31 -11030.412511 -11291.778575 -21133.775263    -64.094814                    
V 31  10589.016012 -25173.298856   7984.803456      -.004877                    
P 32 -24136.126697   6981.074343  -7797.878833    227.936026                    
V 32 -10659.449009  -2168.703966  29846.588113      -.061816                    
EOF
